318P/McNaught-Hartley,e,17.8754,35.6113,313.1459,7.497442,0.0480103,0.67511726,91.6860,01/15.0/2021,2000,g  8.5,6.0
# From MPC 97499
319P/Catalina-McNaught,e,15.0951,111.3778,203.6379,3.568029,0.1462385,0.66659271,295.5933,01/15.0/2021,2000,g 15.0,4.0
# From MPC 96281
320P/McNaught,e,4.9089,295.9302,0.7765,3.094118,0.1810918,0.68576606,359.6121,01/15.0/2021,2000,g 20.5,4.0
# From MPC105243
321P/SOHO,e,20.0655,165.0303,172.7343,2.423293,0.2612734,0.98109021,0.0000,01/17.2766/2020,2000,g 20.0,4.0
# From MPC102103
322P/SOHO,e,11.4622,351.4856,56.9163,2.508091,0.2481356,0.97978552,0.0000,08/31.4587/2019,2000,g 19.0,4.0
# From MPEC 2016-Y36
323P/SOHO,e,5.3387,324.3752,353.0525,2.581924,0.2375685,0.98484245,0.0000,01/17.7618/2021,2000,g 20.0,4.0
# From MPC108598
324P/La Sagra,e,21.4117,270.6386,57.7522,3.097865,0.1807633,0.15475934,339.8759,01/15.0/2021,2000,g 13.0,4.0
# From MPC114609
325P/Yang-Gao,e,16.6966,257.5742,343.6869,3.524009,0.1489871,0.59361414,294.7259,01/15.0/2021,2000,g 14.0,4.0
# From MPC103849
326P/Hill,e,2.4708,99.8124,278.5853,4.063974,0.1203033,0.31752152,230.0702,01/15.0/2021,2000,g 13.5,4.0
# From MPC 97499
327P/Van Ness,e,36.2478,173.9778,185.0263,3.562573,0.1465745,0.56292549,272.7117,01/15.0/2021,2000,g 16.0,4.0
# From MPC109148
328P/LONEOS-Tucker,e,17.6709,341.6276,30.4810,4.195320,0.1146981,0.55189339,211.9951,01/15.0/2021,2000,g 14.5,4.0
# From MPC101101
329P/LINEAR-Catalina,e,21.6677,87.6804,343.5402,5.192195,0.0833062,0.67697362,156.0423,01/15.0/2021,2000,g 13.5,4.0
# From MPC105243
330P/Catalina,e,15.6942,293.0959,188.9852,6.630837,0.0577233,0.54844653,92.4855,01/15.0/2021,2000,g 12.0,4.0
# From MPEC 2021-AJ0
331P/Gibbs,e,9.7391,216.7779,183.8002,3.003753,0.1893249,0.04079269,20.2785,01/15.0/2021,2000,g 12.0,4.0
# From MPEC 2016-K18
332P/Ikeya-Murakami,e,9.3800,3.7896,152.3527,3.088813,0.1815585,0.48944676,320.8849,01/15.0/2021,2000,g 18.0,4.0
# From MPEC 2016-EI8
332P-B/Ikeya-Murakami,e,9.3805,3.8028,152.3711,3.082329,0.1821317,0.48970701,359.9699,03/17.0/2016,2000,g 19.0,4.0
# From MPEC 2016-K18
332P-C/Ikeya-Murakami,e,9.3790,3.7900,152.3440,3.088780,0.1815615,0.48945220,320.8984,01/15.0/2021,2000,g 16.5,4.0
# From MPEC 2016-ED0
332P-D/Ikeya-Murakami,e,9.3761,3.7923,152.4393,3.081138,0.1822373,0.48977814,359.9486,03/17.0/2016,2000,g 19.0,4.0
# From MPEC 2016-ED0
332P-E/Ikeya-Murakami,e,9.3774,3.8228,152.2825,3.079877,0.1823493,0.48922008,359.9889,03/17.0/2016,2000,g 21.0,4.0
# From MPEC 2016-ED0
332P-F/Ikeya-Murakami,e,9.5293,3.4757,152.8203,3.163214,0.1751908,0.49918860,359.8501,03/17.0/2016,2000,g 21.0,4.0
# From MPEC 2016-ED0
332P-G/Ikeya-Murakami,e,9.2523,3.6955,154.4000,3.050519,0.1849880,0.49200362,359.9006,03/19.0/2016,2000,g 19.0,4.0
# From MPC100285
332P-H/Ikeya-Murakami,e,9.3795,3.7897,152.3447,3.088963,0.1815453,0.48948733,320.8369,01/15.0/2021,2000,g 19.0,4.0
# From MPEC 2016-ED0
332P-I/Ikeya-Murakami,e,9.3791,3.8048,152.3297,3.081767,0.1821815,0.48955490,359.9360,03/17.0/2016,2000,g 20.5,2.0
# From MPEC 2016-EI8
332P-J/Ikeya-Murakami,e,9.4296,3.6729,152.7712,3.115165,0.1792596,0.49429435,359.8613,03/17.0/2016,2000,g 20.5,2.0
# From MPEC 2020-L06
333P/LINEAR,e,131.9806,115.6258,26.0201,4.218954,0.1137357,0.73673946,199.0839,01/15.0/2021,2000,g 15.0,4.0
# From MPC115888
334P/NEAT,e,20.4509,90.7017,90.0043,6.838185,0.0551179,0.35238784,72.6005,01/15.0/2021,2000,g 10.5,4.0
# From MPC100285
335P/Gibbs,e,7.2929,330.8460,162.2464,3.578482,0.1455981,0.54558318,276.4017,01/15.0/2021,2000,g 17.0,4.0
# From MPC105244
336P/McNaught,e,17.8340,298.2271,308.7491,5.031456,0.0873300,0.44534244,125.9450,01/15.0/2021,2000,g 13.5,4.0
# From MPC115888
337P/WISE,e,15.3729,106.0711,160.9914,3.287474,0.1653525,0.49684967,272.0271,01/15.0/2021,2000,g 17.0,4.0
# From MPC104796
338P/McNaught,e,25.3754,9.7879,4.3967,3.897697,0.1280831,0.41125473,193.9663,01/15.0/2021,2000,g 12.0,4.0
# From MPC101101
339P/Gibbs,e,5.7346,172.7393,27.5215,3.696124,0.1387025,0.63569622,227.1116,01/15.0/2021,2000,g 17.0,4.0
# From MPC102957
340P/Boattini,e,2.0795,291.7261,35.8169,4.251407,0.1124359,0.28070455,170.5453,01/15.0/2021,2000,g 13.0,4.0
# From MPEC 2020-W26
341P/Gibbs,e,3.7951,29.9869,312.1312,4.293961,0.1107687,0.41532180,187.4498,01/15.0/2021,2000,g 12.5,4.0
# From MPC101101
342P/SOHO,e,11.6761,28.1365,72.8749,3.043614,0.1856178,0.98288036,0.0000,10/19.2519/2021,2000,g  9.0,4.0
# From MPC109148
343P/NEAT-LONEOS,e,5.5837,257.2211,137.3708,5.461115,0.0772293,0.58399627,111.8219,01/15.0/2021,2000,g 14.0,4.0
# From MPC109148
344P/Read,e,3.4905,273.1829,140.3899,4.866597,0.0918049,0.42170583,141.0508,01/15.0/2021,2000,g 13.0,4.0
# From MPC109148
345P/LINEAR,e,2.7268,154.5018,196.3686,4.039487,0.1213989,0.22083330,199.4342,01/15.0/2021,2000,g 12.0,4.0
# From MPC110086
346P/Catalina,e,22.1859,102.4677,335.9951,4.476184,0.1040740,0.50230246,148.9692,01/15.0/2021,2000,g 14.0,4.0
# From MPC108599
347P/PANSTARRS,e,11.7486,261.0373,98.3128,3.606640,0.1438964,0.38558273,228.1614,01/15.0/2021,2000,g 15.0,4.0
# From MPEC 2020-SI8
348P/PANSTARRS,e,17.7406,312.9420,135.5560,3.151570,0.1761625,0.30669294,290.7213,01/15.0/2021,2000,g 14.0,4.0
# From MPC112394
349P/Lemmon,e,5.4909,331.7451,256.0523,3.572624,0.1459564,0.29919174,180.7235,01/15.0/2021,2000,g 14.0,4.0
# From MPC111775
350P/McNaught,e,7.3566,65.3579,140.4556,4.093684,0.1189961,0.09117319,133.9124,01/15.0/2021,2000,g 14.0,4.0
# From MPC105244
351P/Wiegert-PANSTARRS,e,12.7894,283.4494,352.6484,4.437259,0.1054464,0.29599650,198.6652,01/15.0/2021,2000,g 12.5,4.0
# From MPC110086
352P/Skiff,e,21.0088,28.0812,309.1616,6.636360,0.0576513,0.61819033,75.0981,01/15.0/2021,2000,g 11.5,4.0
# From MPEC 2020-AA5
353P/McNaught,e,28.4251,121.5628,230.3763,4.171386,0.1156867,0.47000930,129.6137,01/15.0/2021,2000,g 14.5,4.0
# From MPC105545
354P/LINEAR,e,5.2556,320.1294,133.0094,2.289830,0.2844456,0.12566068,74.7075,01/15.0/2021,2000,g 15.5,4.0
# From MPEC 2020-AA5
355P/LINEAR-NEAT,e,11.0375,51.4361,336.2490,3.472249,0.1523308,0.50699245,181.2922,01/15.0/2021,2000,g 15.5,2.0
# From MPC109148
356P/WISE,e,9.6361,160.7915,226.0107,4.160295,0.1161496,0.35480328,130.6502,01/15.0/2021,2000,g 14.0,4.0
# From MPC114609
357P/Hill,e,6.3105,44.5758,1.4091,4.461326,0.1045943,0.43461240,100.6351,01/15.0/2021,2000,g 15.5,4.0
# From MPEC 2020-HN5
358P/PANSTARRS,e,11.0574,85.7113,299.7282,3.148115,0.1764527,0.23825318,178.1250,01/15.0/2021,2000,g 18.0,4.0
# From MPC110086
359P/LONEOS,e,10.2662,149.7566,200.1407,4.639570,0.0986251,0.32399902,122.5618,01/15.0/2021,2000,g 13.5,4.0
# From MPC108599
360P/WISE,e,24.1005,2.1912,354.1187,3.702630,0.1383371,0.49874943,172.2020,01/15.0/2021,2000,g 19.5,6.0
# From MPC114609
361P/Spacewatch,e,13.8895,203.2518,219.0808,4.939700,0.0897745,0.43789775,83.2987,01/15.0/2021,2000,g 12.0,4.0
# From MPEC 2017-V13
362P/,e,15.5575,192.5781,53.6963,3.968265,0.1246818,0.27966939,200.1580,01/15.0/2021,2000,g 12.9,2.0
# From MPC114609
363P/Lemmon,e,5.3424,147.2126,341.0301,3.536813,0.1481787,0.53189565,154.0576,01/15.0/2021,2000,g 17.5,4.0
# From MPC114609
364P/PANSTARRS,e,12.1429,46.2007,211.9961,2.879070,0.2017556,0.72233865,188.7725,01/15.0/2021,2000,g 17.0,2.0
# From MPC111775
365P/PANSTARRS,e,9.8319,87.3508,66.2431,3.177529,0.1740082,0.57613872,185.8911,01/15.0/2021,2000,g 17.0,4.0
# From MPC114610
366P/Spacewatch,e,8.8592,70.7564,153.1549,3.495582,0.1508082,0.34839104,137.0976,01/15.0/2021,2000,g 15.0,4.0
# From MPC112395
367P/Catalina,e,8.4631,58.7187,172.9175,3.505380,0.1501763,0.28040094,140.9955,01/15.0/2021,2000,g 17.5,2.0
# From MPC114610
368P/NEAT,e,15.4823,257.9567,118.7812,5.526791,0.0758568,0.62627919,64.7450,01/15.0/2021,2000,g 14.0,4.0
# From MPC114610
369P/Hill,e,10.3121,47.2995,13.1961,4.385189,0.1073301,0.55427906,88.3251,01/15.0/2021,2000,g 15.0,4.0
# From MPC114610
370P/NEAT,e,19.4019,55.1283,356.6908,6.435843,0.0603665,0.61445972,57.3821,01/15.0/2021,2000,g 13.0,4.0
# From MPC114610
371P/LINEAR-Skiff,e,17.3773,67.3121,308.4547,4.181257,0.1152773,0.47650726,96.0495,01/15.0/2021,2000,g 16.0,4.0
# From MPEC 2020-K19
372P/McNaught,e,9.5099,325.8168,27.2287,4.503588,0.1031255,0.15265719,84.2086,01/15.0/2021,2000,g 13.5,4.0
# From MPC114610
373P/Rinner,e,13.7599,231.9486,221.1265,3.804359,0.1328256,0.39216219,85.9594,01/15.0/2021,2000,g 14.5,4.0
# From MPC114610
374P/Larson,e,10.7620,7.9127,51.5139,4.974465,0.0888351,0.46239729,65.3226,01/15.0/2021,2000,g 14.0,4.0
# From MPC114610
375P/Hill,e,17.3612,359.9432,119.4737,5.558087,0.0752170,0.65866888,56.8535,01/15.0/2021,2000,g 16.0,4.0
# From MPEC 2020-W26
376P/LONEOS,e,1.1931,314.8286,285.0104,5.853956,0.0695873,0.51787270,33.0662,01/15.0/2021,2000,g 12.5,4.0
# From MPC115888
377P/Scotti,e,9.0228,226.0595,355.0190,6.711835,0.0566816,0.25253794,10.6112,01/15.0/2021,2000,g  9.5,4.0
# From MPEC 2019-TG9
378P/McNaught,e,19.0859,94.4983,194.0026,6.387227,0.0610570,0.47071726,5.2765,01/15.0/2021,2000,g 12.0,4.0
# From MPC115889
379P/Spacewatch,e,12.4049,183.8589,31.1383,3.525099,0.1489180,0.33947120,79.3284,01/15.0/2021,2000,g 15.0,4.0
# From MPEC 2020-KB7
380P/PANSTARRS,e,8.2791,132.9773,89.3727,4.533136,0.1021188,0.33139215,60.2684,01/15.0/2021,2000,g 12.5,4.0
# From MPEC 2019-TG9
381P/LINEAR-Spacewatch,e,28.3751,173.7785,173.1420,7.120418,0.0518735,0.68176659,24.6922,01/15.0/2021,2000,g 17.5,2.0
# From MPC115889
382P/Larson,e,7.7451,176.1374,173.8838,6.307255,0.0622219,0.30414775,332.4723,01/15.0/2021,2000,g  8.0,4.0
# From MPC118844
383P/Christensen,e,12.3210,207.8821,133.6576,3.544743,0.1476818,0.59957579,65.9744,01/15.0/2021,2000,g 18.0,4.0
# From MPEC 2020-W26
384P/Kowalski,e,7.2829,354.2265,37.6304,2.901336,0.1994376,0.61544852,92.0492,01/15.0/2021,2000,g 19.5,4.0
# From MPEC 2020-C98
385P/Hill,e,16.8280,357.0649,44.3297,4.288303,0.1109880,0.40137018,54.1833,01/15.0/2021,2000,g 13.0,4.0
# From MPEC 2021-AJ0
386P/PANSTARRS,e,15.2296,134.9477,353.2459,4.057830,0.1205767,0.41638837,17.9245,01/15.0/2021,2000,g 14.5,4.0
# From MPEC 2020-C98
